GLOBALSTAR M001         
1 25162U 98008A   25329.89010168 -.00000074  00000+0  17034-3 0  9994
2 25162  52.0024 222.5706 0000479 219.7169 233.8511 12.38221835263740
GLOBALSTAR M004         
1 25163U 98008B   25330.27541244 -.00000049  00000+0  30200-3 0  9995
2 25163  52.0012 279.6551 0002895 300.6969 211.1127 12.63409075282173
GLOBALSTAR M002         
1 25164U 98008C   25330.29714098 -.00000076  00000+0  51000-5 0  9990
2 25164  51.9987 193.7406 0002603  78.3240 281.7872 11.61513580202903
GLOBALSTAR M003         
1 25165U 98008D   25330.49972918 -.00000176  00000+0 -92502-3 0  9992
2 25165  51.9920  78.9659 0007437 256.9342 184.2744 12.12046380252908
GLOBALSTAR M014         
1 25306U 98023A   25330.37785469 -.00000066  00000+0  21671-3 0  9992
2 25306  51.9815 113.3476 0000190  64.4834 310.4295 11.65483991210083
GLOBALSTAR M006         
1 25307U 98023B   25330.32273600 -.00000075  00000+0  15901-4 0  9997
2 25307  51.9902 172.0234 0004171  53.9771 116.7404 11.58178434235611
GLOBALSTAR M015         
1 25308U 98023C   25330.34095294  .00000039  00000+0  25682-2 0  9995
2 25308  51.9831 277.8816 0012968   5.8801 163.4105 11.48861762212711
GLOBALSTAR M008         
1 25309U 98023D   25330.53087806 -.00000097  00000+0 -59358-5 0  9993
2 25309  51.9967  87.3727 0003356 148.1384 293.6902 12.36076249257924
